[{"OBJECT_NAME":"ONEWEB-0625","OBJECT_ID":"2023-004AC","EPOCH":"2026-03-09T20:02:59.294400","MEAN_MOTION":13.17649415,"ECCENTRICITY":0.00017641,"INCLINATION":87.9151,"RA_OF_ASC_NODE":25.6036,"ARG_OF_PERICENTER":86.6046,"MEAN_ANOMALY":273.5288,"EPHEMERIS_TYPE":0,"CLASSIFICATION_TYPE":"U","NORAD_CAT_ID":55166,"ELEMENT_SET_NO":999,"REV_AT_EPOCH":15449,"BSTAR":-1.2961049e-5,"MEAN_MOTION_DOT":8.0e-8,"MEAN_MOTION_DDOT":0},{"OBJECT_NAME":"DELTA 1 DEB","OBJECT_ID":"1975-052FF","EPOCH":"2026-03-09T09:31:34.161024","MEAN_MOTION":13.57601208,"ECCENTRICITY":0.02491359,"INCLINATION":99.9369,"RA_OF_ASC_NODE":224.0728,"ARG_OF_PERICENTER":239.4771,"MEAN_ANOMALY":146.5791,"EPHEMERIS_TYPE":0,"CLASSIFICATION_TYPE":"U","NORAD_CAT_ID":21471,"ELEMENT_SET_NO":999,"REV_AT_EPOCH":72291,"BSTAR":0.00072400564,"MEAN_MOTION_DOT":5.88e-6,"MEAN_MOTION_DDOT":0}]
